GLOBALSTAR M057         
1 25943U 99058A   25187.45481350 -.00000054  00000+0  35733-3 0  9990
2 25943  51.9997 293.5250 0002997  67.7294 292.3873 12.24824453169299
GLOBALSTAR M059         
1 25944U 99058B   25187.35423491 -.00000075  00000+0  13423-3 0  9997
2 25944  51.9993 155.3191 0000859 343.8599 170.4028 11.99980261576343
GLOBALSTAR M056         
1 25945U 99058C   25187.44214647 -.00000103  00000+0 -18159-3 0  9993
2 25945  51.9939 156.5465 0000819 234.0467 275.1330 12.04782342164947
GLOBALSTAR M031         
1 25946U 99058D   25187.00732729 -.00000078  00000+0  13165-3 0  9994
2 25946  51.9977  48.9393 0000747 183.7914 324.1356 12.16038688166834
GLOBALSTAR M039         
1 25961U 99062A   25187.40572535 -.00000062  00000+0  23204-3 0  9995
2 25961  51.9817 210.1814 0002575  31.1724 328.9295 12.62329426182646
GLOBALSTAR M034         
1 25962U 99062B   25187.61665766 -.00000070  00000+0  17919-3 0  9993
2 25962  51.9896 320.8826 0014769  79.7851   8.4291 11.79446440140680
GLOBALSTAR M029         
1 25963U 99062C   25187.12087111 -.00000065  00000+0  25731-3 0  9997
2 25963  51.9817  43.9711 0002690 137.7614  42.7269 11.99898202171399
GLOBALSTAR M061         
1 25964U 99062D   25187.90731794 -.00000080  00000+0  25107-5 0  9993
2 25964  51.9774 144.4224 0006388   0.7462  33.2160 11.76776468123796
